[{"OBJECT_NAME":"YAOGAN-43 01F","OBJECT_ID":"2024-148F","EPOCH":"2026-03-10T00:23:08.877408","MEAN_MOTION":15.29824616,"ECCENTRICITY":0.00057048,"INCLINATION":34.9925,"RA_OF_ASC_NODE":59.8891,"ARG_OF_PERICENTER":18.4862,"MEAN_ANOMALY":341.6062,"EPHEMERIS_TYPE":0,"CLASSIFICATION_TYPE":"U","NORAD_CAT_ID":60463,"ELEMENT_SET_NO":999,"REV_AT_EPOCH":8707,"BSTAR":0.00058388219,"MEAN_MOTION_DOT":0.00017308,"MEAN_MOTION_DDOT":0},{"OBJECT_NAME":"STARLINK-34537","OBJECT_ID":"2025-147Z","EPOCH":"2026-03-09T17:11:47.690016","MEAN_MOTION":15.30203721,"ECCENTRICITY":8.348e-5,"INCLINATION":53.1565,"RA_OF_ASC_NODE":219.7468,"ARG_OF_PERICENTER":90.4465,"MEAN_ANOMALY":269.6632,"EPHEMERIS_TYPE":0,"CLASSIFICATION_TYPE":"U","NORAD_CAT_ID":64778,"ELEMENT_SET_NO":999,"REV_AT_EPOCH":3910,"BSTAR":0.00097442014,"MEAN_MOTION_DOT":0.00028615,"MEAN_MOTION_DDOT":0}]
